{
"places": 
[
{"city":"Panihati","state":"West Bengal","geonameid":1260482},
{"city":"Pandua","state":"West Bengal","geonameid":1260527},
{"city":"Pandhurna","state":"Madhya Pradesh","geonameid":1260543},
{"city":"Pandharpur","state":"Maharashtra","geonameid":1260546},
{"city":"Darjiling","state":"West Bengal","geonameid":1273467},
{"city":"Darbhanga","state":"Bihar","geonameid":1273491},
{"city":"Dandeli","state":"Karnataka","geonameid":1273574},
{"city":"Dinapore","state":"Bihar","geonameid":1273581},
{"city":"Damoh","state":"Madhya Pradesh","geonameid":1273587},
{"city":"Jhusi","state":"Uttar Pradesh","geonameid":1268929},
{"city":"Jhunjhunun","state":"Rajasthan","geonameid":1268936},
{"city":"Jhinjhana","state":"Uttar Pradesh","geonameid":1268961},
{"city":"Jhinjhak","state":"Uttar Pradesh","geonameid":1268962},
{"city":"Jharsuguda","state":"Odisha","geonameid":1268977},
{"city":"Jharia","state":"Jharkhand","geonameid":1268988},
{"city":"Jhargram","state":"West Bengal","geonameid":1268990},
{"city":"Jhansi","state":"Uttar Pradesh","geonameid":1269006},
{"city":"Ludhiana","state":"Punjab","geonameid":1264728},
{"city":"Lucknow","state":"Uttar Pradesh","geonameid":1264733},
{"city":"Luckeesarai","state":"Bihar","geonameid":1264735},
{"city":"Khandwa","state":"Madhya Pradesh","geonameid":1267031},
{"city":"Khandela","state":"Rajasthan","geonameid":1267044},
{"city":"Khanapur","state":"Karnataka","geonameid":1267065},
{"city":"Khammam","state":"Telangana","geonameid":1267076},
{"city":"Khamgaon","state":"Maharashtra","geonameid":1267084},
{"city":"Malegaon","state":"Maharashtra","geonameid":1264115},
{"city":"Malavalli","state":"Karnataka","geonameid":1264136},
{"city":"Malaut","state":"Punjab","geonameid":1264138},
{"city":"Malappuram","state":"Kerala","geonameid":1264154},
{"city":"Makum","state":"Assam","geonameid":1264196},
{"city":"Maksi","state":"Madhya Pradesh","geonameid":1264198},
{"city":"Makrana","state":"Rajasthan","geonameid":1264206},
{"city":"Mairwa","state":"Bihar","geonameid":1264282},
{"city":"Mahbubnagar","state":"Telangana","geonameid":1264407},
{"city":"Mahbubabad","state":"Telangana","geonameid":1264409},
{"city":"Mainpuri","state":"Uttar Pradesh","geonameid":1264292},
{"city":"Mainaguri","state":"West Bengal","geonameid":1264301},
{"city":"Maihar","state":"Madhya Pradesh","geonameid":1264317},
{"city":"Mahwah","state":"Rajasthan","geonameid":1264323},
{"city":"Mahudha","state":"Gujarat","geonameid":1264344},
{"city":"Maholi","state":"Uttar Pradesh","geonameid":1264356},
{"city":"Mahoba","state":"Uttar Pradesh","geonameid":1264359},
{"city":"Mahmudabad","state":"Uttar Pradesh","geonameid":1264363},
{"city":"Mahishadal","state":"West Bengal","geonameid":1264368},
{"city":"Mahgawan","state":"Madhya Pradesh","geonameid":1264383},
{"city":"Maheshwar","state":"Madhya Pradesh","geonameid":1264385},
{"city":"Mahendragarh","state":"Haryana","geonameid":1264395},
{"city":"Mahemdavad","state":"Gujarat","geonameid":1264398},
{"city":"MahÄ“","state":"Kerala","geonameid":1264403},
{"city":"Mahasamund","state":"Chhattisgarh","geonameid":1264414},
{"city":"Maharaganj","state":"Uttar Pradesh","geonameid":1264433},
{"city":"Maharajgani","state":"Bihar","geonameid":1264436},
{"city":"Maham","state":"Haryana","geonameid":1264455},
{"city":"Mahalingpur","state":"Karnataka","geonameid":1264457},
{"city":"Mahad","state":"Maharashtra","geonameid":1264489},
{"city":"Maghar","state":"Uttar Pradesh","geonameid":1264504},
{"city":"Magadi","state":"Karnataka","geonameid":1264514},
{"city":"Madurantakam","state":"Tamil Nadu","geonameid":1264520},
{"city":"Madurai","state":"Tamil Nadu","geonameid":1264521},
{"city":"Madukkur","state":"Tamil Nadu","geonameid":1264523},
{"city":"Madukkarai","state":"Tamil Nadu","geonameid":1264524},
{"city":"Chennai","state":"Tamil Nadu","geonameid":1264527},
{"city":"Madikeri","state":"Karnataka","geonameid":1264540},
{"city":"Madhyamgram","state":"West Bengal","geonameid":1264543},
{"city":"Madhupur","state":"Jharkhand","geonameid":1264551},
{"city":"Maddagiri","state":"Karnataka","geonameid":1264553},
{"city":"Madhubani","state":"Bihar","geonameid":1264555},
{"city":"Madhipura","state":"Bihar","geonameid":1264570},
{"city":"Madgaon","state":"Goa","geonameid":1264588},
{"city":"Maddur","state":"Karnataka","geonameid":1264592},
{"city":"Madanapalle","state":"Andhra Pradesh","geonameid":1264621},
{"city":"Machilipatnam","state":"Andhra Pradesh","geonameid":1264637},
{"city":"Machhlishahr","state":"Uttar Pradesh","geonameid":1264643},
{"city":"Machhiwara","state":"Punjab","geonameid":1264644},
{"city":"Macherla","state":"Andhra Pradesh","geonameid":1264647},
{"city":"Lunglei","state":"Mizoram","geonameid":1264688},
{"city":"Lunavada","state":"Gujarat","geonameid":1264700},
{"city":"Losal","state":"Rajasthan","geonameid":1264756},
{"city":"Loni","state":"Uttar Pradesh","geonameid":1264773},
{"city":"Lonavla","state":"Maharashtra","geonameid":1264793},
{"city":"Lonar","state":"Maharashtra","geonameid":1264794},
{"city":"Lohardaga","state":"Jharkhand","geonameid":1264839},
{"city":"Lingsugur","state":"Karnataka","geonameid":1264890},
{"city":"Limbdi","state":"Gujarat","geonameid":1264912},
{"city":"Leteri","state":"Madhya Pradesh","geonameid":1264949},
{"city":"Leh","state":"Kashmir","geonameid":1264976},
{"city":"Lawar Khas","state":"Uttar Pradesh","geonameid":1264989},
{"city":"Laungowal","state":"Punjab","geonameid":1265007},
{"city":"Latur","state":"Maharashtra","geonameid":1265014},
{"city":"Lathi","state":"Gujarat","geonameid":1265022},
{"city":"Latehar","state":"Jharkhand","geonameid":1265025},
{"city":"Lar","state":"Uttar Pradesh","geonameid":1265053},
{"city":"Lalsot","state":"Rajasthan","geonameid":1265143},
{"city":"Lalpur","state":"Gujarat","geonameid":1265150},
{"city":"Lalitpur","state":"Uttar Pradesh","geonameid":1265157},
{"city":"Lalgudi","state":"Tamil Nadu","geonameid":1265163},
{"city":"Lalgola","state":"West Bengal","geonameid":1265166},
{"city":"Lalganj","state":"Uttar Pradesh","geonameid":1265169},
{"city":"Lalganj","state":"Bihar","geonameid":1265170}
]
}